{
  "norad_id": 64522,
  "name": "KUIPER-00062",
  "history": [
    {
      "epoch": "2026-03-28T21:05:46.315392Z",
      "apogee_km": 630.1032512631473,
      "perigee_km": 629.2651158495928,
      "latitude_deg": 4.3066869480600146e-05,
      "longitude_deg": 3.025726777520622,
      "height_km": 630.4685335218142,
      "semi_major_axis_km": 7007.82118355637,
      "eccentricity": 5.98e-05,
      "inclination_deg": 51.8954,
      "raan_deg": 145.7618,
      "arg_perigee_deg": 95.3216,
      "mean_anomaly_deg": 264.7815,
      "mean_motion_rev_day": 14.79885942
    },
    {
      "epoch": "2026-03-30T03:53:26.000736Z",
      "apogee_km": 630.0514731573285,
      "perigee_km": 629.2315630707099,
      "latitude_deg": -7.573705057437142e-05,
      "longitude_deg": -105.82850014343198,
      "height_km": 630.4265783213817,
      "semi_major_axis_km": 7007.778518114019,
      "eccentricity": 5.85e-05,
      "inclination_deg": 51.8955,
      "raan_deg": 140.0877,
      "arg_perigee_deg": 95.5332,
      "mean_anomaly_deg": 264.5696,
      "mean_motion_rev_day": 14.79899457
    },
    {
      "epoch": "2026-03-30T03:53:26.001600Z",
      "apogee_km": 630.0511928461883,
      "perigee_km": 629.23184338185,
      "latitude_deg": -7.209765100880121e-05,
      "longitude_deg": -105.82850091468148,
      "height_km": 630.4265512896357,
      "semi_major_axis_km": 7007.778518114019,
      "eccentricity": 5.846e-05,
      "inclination_deg": 51.8955,
      "raan_deg": 140.0877,
      "arg_perigee_deg": 95.5332,
      "mean_anomaly_deg": 264.5696,
      "mean_motion_rev_day": 14.79899457
    },
    {
      "epoch": "2026-03-30T13:36:54.103104Z",
      "apogee_km": 630.0343262506158,
      "perigee_km": 629.2189028764251,
      "latitude_deg": 1.7561094873993908e-05,
      "longitude_deg": 106.11350998470128,
      "height_km": 630.396998006168,
      "semi_major_axis_km": 7007.763614563521,
      "eccentricity": 5.818e-05,
      "inclination_deg": 51.8956,
      "raan_deg": 138.2961,
      "arg_perigee_deg": 93.4944,
      "mean_anomaly_deg": 266.6085,
      "mean_motion_rev_day": 14.79904178
    },
    {
      "epoch": "2026-03-31T20:24:32.368896Z",
      "apogee_km": 630.0035855561291,
      "perigee_km": 629.1528489287566,
      "latitude_deg": 1.7968273651827193e-05,
      "longitude_deg": -2.7347919147017725,
      "height_km": 630.3327313409856,
      "semi_major_axis_km": 7007.715217242443,
      "eccentricity": 6.07e-05,
      "inclination_deg": 51.8953,
      "raan_deg": 132.6219,
      "arg_perigee_deg": 91.2178,
      "mean_anomaly_deg": 268.8854,
      "mean_motion_rev_day": 14.79919509
    },
    {
      "epoch": "2026-04-01T19:05:54.203136Z",
      "apogee_km": 629.9236137960406,
      "perigee_km": 628.9411525685182,
      "latitude_deg": -4.38519630014626e-05,
      "longitude_deg": 11.810864576428754,
      "height_km": 630.1667202850152,
      "semi_major_axis_km": 7007.569383182279,
      "eccentricity": 7.01e-05,
      "inclination_deg": 51.8952,
      "raan_deg": 128.4404,
      "arg_perigee_deg": 88.7132,
      "mean_anomaly_deg": 271.391,
      "mean_motion_rev_day": 14.79965707
    },
    {
      "epoch": "2026-04-02T19:24:29.333376Z",
      "apogee_km": 629.8800565902975,
      "perigee_km": 628.8090331109815,
      "latitude_deg": -5.422297056384005e-05,
      "longitude_deg": 1.6864150009885868,
      "height_km": 630.0602195543645,
      "semi_major_axis_km": 7007.481544850639,
      "eccentricity": 7.642e-05,
      "inclination_deg": 51.8948,
      "raan_deg": 123.9607,
      "arg_perigee_deg": 86.8332,
      "mean_anomaly_deg": 273.2717,
      "mean_motion_rev_day": 14.79993534
    },
    {
      "epoch": "2026-04-03T01:53:26.662848Z",
      "apogee_km": 629.8785674770534,
      "perigee_km": 628.7981549258639,
      "latitude_deg": 3.4409051094667805e-05,
      "longitude_deg": -97.01331911212766,
      "height_km": 630.0721172679155,
      "semi_major_axis_km": 7007.475361201458,
      "eccentricity": 7.709e-05,
      "inclination_deg": 51.8943,
      "raan_deg": 122.766,
      "arg_perigee_deg": 88.788,
      "mean_anomaly_deg": 271.3171,
      "mean_motion_rev_day": 14.79995493
    },
    {
      "epoch": "2026-04-04T11:55:31.127520Z",
      "apogee_km": 630.0278190530735,
      "perigee_km": 628.920756621821,
      "latitude_deg": -2.6539309683974527e-05,
      "longitude_deg": 104.80087973990952,
      "height_km": 630.0493348755207,
      "semi_major_axis_km": 7007.611287837447,
      "eccentricity": 7.899e-05,
      "inclination_deg": 51.896,
      "raan_deg": 116.4966,
      "arg_perigee_deg": 72.0773,
      "mean_anomaly_deg": 288.0275,
      "mean_motion_rev_day": 14.79952432
    },
    {
      "epoch": "2026-04-05T10:36:55.723104Z",
      "apogee_km": 630.1523892287878,
      "perigee_km": 628.9511312215091,
      "latitude_deg": -3.5476601211706366e-05,
      "longitude_deg": 119.33303791547924,
      "height_km": 630.2932840533614,
      "semi_major_axis_km": 7007.688760225148,
      "eccentricity": 8.571e-05,
      "inclination_deg": 51.8954,
      "raan_deg": 112.3131,
      "arg_perigee_deg": 89.6517,
      "mean_anomaly_deg": 270.4543,
      "mean_motion_rev_day": 14.7992789
    },
    {
      "epoch": "2026-04-05T18:43:09.155712Z",
      "apogee_km": 630.1074618224775,
      "perigee_km": 629.017063817183,
      "latitude_deg": -8.511898716166496e-06,
      "longitude_deg": -4.049619275412319,
      "height_km": 630.2165530460668,
      "semi_major_axis_km": 7007.69926281983,
      "eccentricity": 7.78e-05,
      "inclination_deg": 51.8949,
      "raan_deg": 110.8192,
      "arg_perigee_deg": 80.3975,
      "mean_anomaly_deg": 279.7075,
      "mean_motion_rev_day": 14.79924563
    },
    {
      "epoch": "2026-04-06T06:03:51.416352Z",
      "apogee_km": 630.1280391329556,
      "perigee_km": 628.9857850252865,
      "latitude_deg": -1.0268246737464082e-05,
      "longitude_deg": -176.7823332339106,
      "height_km": 630.2444583913692,
      "semi_major_axis_km": 7007.69391207912,
      "eccentricity": 8.15e-05,
      "inclination_deg": 51.895,
      "raan_deg": 108.7285,
      "arg_perigee_deg": 84.2073,
      "mean_anomaly_deg": 275.8982,
      "mean_motion_rev_day": 14.79926258
    },
    {
      "epoch": "2026-04-07T04:45:15.888384Z",
      "apogee_km": 630.0797003804837,
      "perigee_km": 629.0209789772043,
      "latitude_deg": -1.5364115875037386e-05,
      "longitude_deg": -162.2470570169134,
      "height_km": 630.2341057451654,
      "semi_major_axis_km": 7007.687339678843,
      "eccentricity": 7.554e-05,
      "inclination_deg": 51.8953,
      "raan_deg": 104.5476,
      "arg_perigee_deg": 83.3246,
      "mean_anomaly_deg": 276.7802,
      "mean_motion_rev_day": 14.7992834
    },
    {
      "epoch": "2026-04-07T17:43:12.614880Z",
      "apogee_km": 630.0873995941511,
      "perigee_km": 629.0068147048287,
      "latitude_deg": -6.484661746357639e-05,
      "longitude_deg": 0.34505767068918924,
      "height_km": 630.222051788404,
      "semi_major_axis_km": 7007.68410714949,
      "eccentricity": 7.71e-05,
      "inclination_deg": 51.8957,
      "raan_deg": 102.1586,
      "arg_perigee_deg": 82.5143,
      "mean_anomaly_deg": 277.5906,
      "mean_motion_rev_day": 14.79929364
    },
    {
      "epoch": "2026-04-08T06:41:09.200544Z",
      "apogee_km": 630.0697247075823,
      "perigee_km": 629.0080618097536,
      "latitude_deg": -5.669513052657507e-06,
      "longitude_deg": 162.93804547239372,
      "height_km": 630.2056362939499,
      "semi_major_axis_km": 7007.675893258668,
      "eccentricity": 7.575e-05,
      "inclination_deg": 51.8961,
      "raan_deg": 99.7698,
      "arg_perigee_deg": 81.48,
      "mean_anomaly_deg": 278.6248,
      "mean_motion_rev_day": 14.79931966
    },
    {
      "epoch": "2026-04-09T06:59:47.660640Z",
      "apogee_km": 630.0697095885716,
      "perigee_km": 628.9773554647609,
      "latitude_deg": 3.429254859854242e-05,
      "longitude_deg": 152.79991887597157,
      "height_km": 630.1881914896118,
      "semi_major_axis_km": 7007.660532526666,
      "eccentricity": 7.794e-05,
      "inclination_deg": 51.8967,
      "raan_deg": 95.2903,
      "arg_perigee_deg": 81.4967,
      "mean_anomaly_deg": 278.6084,
      "mean_motion_rev_day": 14.79936832
    },
    {
      "epoch": "2026-04-10T08:55:40.329984Z",
      "apogee_km": 630.0780567498714,
      "perigee_km": 628.9245994810635,
      "latitude_deg": -3.8710406642387845e-06,
      "longitude_deg": 117.98627003473572,
      "height_km": 630.1872789937381,
      "semi_major_axis_km": 7007.638328115467,
      "eccentricity": 8.23e-05,
      "inclination_deg": 51.8965,
      "raan_deg": 90.5111,
      "arg_perigee_deg": 84.089,
      "mean_anomaly_deg": 276.0166,
      "mean_motion_rev_day": 14.79943866
    },
    {
      "epoch": "2026-04-11T15:43:16.809888Z",
      "apogee_km": 630.0513130494382,
      "perigee_km": 628.9875508030718,
      "latitude_deg": 1.7333482586925345e-05,
      "longitude_deg": 9.145541718079064,
      "height_km": 630.1175169471732,
      "semi_major_axis_km": 7007.656431926255,
      "eccentricity": 7.59e-05,
      "inclination_deg": 51.8957,
      "raan_deg": 84.837,
      "arg_perigee_deg": 73.9237,
      "mean_anomaly_deg": 286.1809,
      "mean_motion_rev_day": 14.79938131
    },
    {
      "epoch": "2026-04-13T04:59:53.383200Z",
      "apogee_km": 630.1934954367998,
      "perigee_km": 628.974152013473,
      "latitude_deg": 2.7361067710312645e-05,
      "longitude_deg": 161.59335497256106,
      "height_km": 630.4596297608765,
      "semi_major_axis_km": 7007.720823725136,
      "eccentricity": 8.7e-05,
      "inclination_deg": 51.8962,
      "raan_deg": 77.9681,
      "arg_perigee_deg": 102.3649,
      "mean_anomaly_deg": 257.7411,
      "mean_motion_rev_day": 14.79917733
    }
  ]
}